H1 CPF 01  gfz 2021 06 04 00  6551 terrasarx 
H2 0702601  6201 31698    2021 06 04 00 59 42 2021 06 09 00 00 42   120 1 1  0 0 0
H9
10 0 59369  53262.000000  0    4228550.398   4052651.048   3617739.634
10 0 59369  53382.000000  0    3976321.392   3554248.154   4350923.907
10 0 59369  53502.000000  0    3645377.876   2998829.191   5007525.040
10 0 59369  53622.000000  0    3240625.907   2397454.889   5576017.179
10 0 59369  53742.000000  0    2768456.952   1761883.791   6046435.839
10 0 59369  53862.000000  0    2236643.173   1104338.895   6410546.979
10 0 59369  53982.000000  0    1654205.558    437269.761   6661984.741
10 0 59369  54102.000000  0    1031257.965   -226882.586   6796356.597
10 0 59369  54222.000000  0     378830.003   -875916.943   6811316.914
10 0 59369  54342.000000  0    -291328.844  -1498096.491   6706605.189
10 0 59369  54462.000000  0    -966960.863  -2082360.747   6484049.758
10 0 59369  54582.000000  0   -1635523.559  -2618522.202   6147536.349
10 0 59369  54702.000000  0   -2284419.876  -3097443.874   5702944.353
10 0 59369  54822.000000  0   -2901235.392  -3511197.943   5158052.372
10 0 59369  54942.000000  0   -3473980.011  -3853201.864   4522408.879
10 0 59369  55062.000000  0   -3991325.486  -4118327.071   3807168.506
10 0 59369  55182.000000  0   -4442833.295  -4302979.360   3024898.988
10 0 59369  55302.000000  0   -4819169.515  -4405149.522   2189361.779
10 0 59369  55422.000000  0   -5112302.579  -4424432.784   1315267.615
10 0 59369  55542.000000  0   -5315677.046  -4362014.529    418011.864
10 0 59369  55662.000000  0   -5424359.501  -4220623.542   -486604.062
10 0 59369  55782.000000  0   -5435152.658  -4004453.784  -1382660.084
10 0 59369  55902.000000  0   -5346673.846  -3719055.773  -2254407.688
10 0 59369  56022.000000  0   -5159395.230  -3371200.550  -3086554.071
10 0 59369  56142.000000  0   -4875646.899  -2968721.787  -3864534.269
10 0 59369  56262.000000  0   -4499583.707  -2520339.656  -4574766.612
10 0 59369  56382.000000  0   -4037116.398  -2035471.091  -5204887.007
10 0 59369  56502.000000  0   -3495809.617  -1524031.298  -5743957.696
10 0 59369  56622.000000  0   -2884750.047   -996230.652  -6182647.742
10 0 59369  56742.000000  0   -2214387.826   -462371.850  -6513383.490
10 0 59369  56862.000000  0   -1496353.800     67348.489  -6730467.682
10 0 59369  56982.000000  0    -743257.747    583029.876  -6830165.891
10 0 59369  57102.000000  0      31528.858   1075247.893  -6810763.754
10 0 59369  57222.000000  0     814104.067   1535221.714  -6672592.844
10 0 59369  57342.000000  0    1590278.502   1954966.637  -6418028.136
10 0 59369  57462.000000  0    2345827.728   2327431.167  -6051451.619
10 0 59369  57582.000000  0    3066748.922   2646614.953  -5579184.678
10 0 59369  57702.000000  0    3739517.120   2907665.874  -5009388.654
10 0 59369  57822.000000  0    4351339.553   3106956.089  -4351936.469
10 0 59369  57942.000000  0    4890403.402   3242134.782  -3618252.058
10 0 59369  58062.000000  0    5346109.919   3312155.271  -2821119.695
10 0 59369  58182.000000  0    5709290.215   3317277.349  -1974467.506
10 0 59369  58302.000000  0    5972398.893   3259043.025  -1093125.439
10 0 59369  58422.000000  0    6129677.808   3140224.936   -192563.364
10 0 59369  58542.000000  0    6177286.936   2964749.226    711385.694
10 0 59369  58662.000000  0    6113397.695   2737593.405   1602811.304
10 0 59369  58782.000000  0    5938245.816   2464664.497   2466013.841
10 0 59369  58902.000000  0    5654143.338   2152658.016   3285790.236
10 0 59369  59022.000000  0    5265447.145   1808901.394   4047709.527
10 0 59369  59142.000000  0    4778486.083   1441186.944   4738371.903
10 0 59369  59262.000000  0    4201449.980   1057598.414   5345644.503
10 0 59369  59382.000000  0    3544244.343    666335.331   5858874.843
10 0 59369  59502.000000  0    2818309.673    275539.057   6269073.804
10 0 59369  59622.000000  0    2036415.697   -106874.082   6569065.509
10 0 59369  59742.000000  0    1212433.354   -473370.957   6753607.466
10 0 59369  59862.000000  0     361085.704   -816948.921   6819478.159
10 0 59369  59982.000000  0    -502316.684  -1131268.653   6765528.793
10 0 59369  60102.000000  0   -1362150.530  -1410770.868   6592701.389
10 0 59369  60222.000000  0   -2202761.291  -1650774.673   6304012.121
10 0 59369  60342.000000  0   -3008745.869  -1847555.214   5904502.053
10 0 59369  60462.000000  0   -3765236.130  -1998401.875   5401157.567
10 0 59369  60582.000000  0   -4458178.609  -2101655.983   4802794.176
10 0 59369  60702.000000  0   -5074601.708  -2156725.813   4119906.789
10 0 59369  60822.000000  0   -5602865.662  -2164077.950   3364488.666
10 0 59369  60942.000000  0   -6032890.122  -2125205.658   2549823.053
10 0 59369  61062.000000  0   -6356355.857  -2042576.199   1690250.095
10 0 59369  61182.000000  0   -6566875.457  -1919557.099    800909.509
10 0 59369  61302.000000  0   -6660124.047  -1760322.007   -102533.826
10 0 59369  61422.000000  0   -6633930.194  -1569739.124  -1004174.297
10 0 59369  61542.000000  0   -6488322.411  -1353245.317  -1888155.138
10 0 59369  61662.000000  0   -6225530.969  -1116709.610  -2738955.091
10 0 59369  61782.000000  0   -5849945.924   -866289.832  -3541666.483
10 0 59369  61902.000000  0   -5368032.927   -608285.079  -4282259.159
10 0 59369  62022.000000  0   -4788209.525   -348987.837  -4947824.675
10 0 59369  62142.000000  0   -4120685.512    -94540.218  -5526796.389
10 0 59369  62262.000000  0   -3377271.504    149202.588  -6009142.296
10 0 59369  62382.000000  0   -2571161.361    376799.112  -6386527.017
10 0 59369  62502.000000  0   -1716694.459    583335.577  -6652443.779
10 0 59369  62622.000000  0    -829100.152    764525.322  -6802316.101
10 0 59369  62742.000000  0      75770.099    916793.478  -6833566.984
10 0 59369  62862.000000  0     981718.168   1037344.202  -6745657.760
10 0 59369  62982.000000  0    1872482.096   1124210.200  -6540099.180
10 0 59369  63102.000000  0    2732022.527   1176284.814  -6220428.499
10 0 59369  63222.000000  0    3544806.963   1193335.132  -5792154.432
10 0 59369  63342.000000  0    4296086.911   1175995.791  -5262670.973
10 0 59369  63462.000000  0    4972166.403   1125744.011  -4641141.921
10 0 59369  63582.000000  0    5560657.209   1044856.321  -3938353.261
10 0 59369  63702.000000  0    6050713.824    936346.992  -3166535.343
10 0 59369  63822.000000  0    6433243.950    803889.282  -2339157.655
10 0 59369  63942.000000  0    6701090.360    651721.450  -1470697.685
10 0 59369  64062.000000  0    6849177.347    484538.669   -576386.372
10 0 59369  64182.000000  0    6874616.416    307373.768    328063.186
10 0 59369  64302.000000  0    6776770.126    125470.431   1226737.830
10 0 59369  64422.000000  0    6557271.551    -55849.774   2103812.833
10 0 59369  64542.000000  0    6219997.002   -231321.523   2943840.314
10 0 59369  64662.000000  0    5770992.690   -395868.566   3732029.426
10 0 59369  64782.000000  0    5218358.327   -544730.481   4454511.652
10 0 59369  64902.000000  0    4572093.041   -673581.289   5098588.333
10 0 59369  65022.000000  0    3843903.052   -778637.320   5652954.300
10 0 59369  65142.000000  0    3046979.658   -856750.016   6107892.441
10 0 59369  65262.000000  0    2195752.619   -905483.743   6455439.110
10 0 59369  65382.000000  0    1305624.025   -923176.530   6689517.963
10 0 59369  65502.000000  0     392685.401   -908982.800   6806041.319
10 0 59369  65622.000000  0    -526574.944   -862896.710   6802975.907
10 0 59369  65742.000000  0   -1435568.868   -785756.672   6680375.038
10 0 59369  65862.000000  0   -2317906.228   -679230.146   6440377.382
10 0 59369  65982.000000  0   -3157688.850   -545779.179   6087172.340
10 0 59369  66102.000000  0   -3939797.948   -388607.139   5626932.901
10 0 59369  66222.000000  0   -4650170.689   -211587.971   5067714.459
10 0 59369  66342.000000  0   -5276059.827    -19178.794   4419319.382
10 0 59369  66462.000000  0   -5806270.777    183682.325   3693129.406
10 0 59369  66582.000000  0   -6231370.762    391691.763   2901908.424
10 0 59369  66702.000000  0   -6543866.923    599306.522   2059579.040
10 0 59369  66822.000000  0   -6738347.989    800878.129   1180974.618
10 0 59369  66942.000000  0   -6811585.766    990790.445    281572.139
10 0 59369  67062.000000  0   -6762592.651   1163598.611   -622789.113
10 0 59369  67182.000000  0   -6592632.710   1314165.084  -1516195.932
10 0 59369  67302.000000  0   -6305187.749   1437788.844  -2382948.734
10 0 59369  67422.000000  0   -5905881.015   1530326.518  -3207844.672
10 0 59369  67542.000000  0   -5402356.222   1588300.045  -3976450.123
10 0 59369  67662.000000  0   -4804118.216   1608988.503  -4675353.304
10 0 59369  67782.000000  0   -4122341.063   1590503.192  -5292394.282
10 0 59369  67902.000000  0   -3369648.527   1531844.013  -5816868.440
10 0 59369  68022.000000  0   -2559873.248   1432936.324  -6239702.097
10 0 59369  68142.000000  0   -1707798.350   1294647.713  -6553598.822
10 0 59369  68262.000000  0    -828886.051   1118785.383  -6753153.302
10 0 59369  68382.000000  0      60999.267    908073.247  -6834933.478
10 0 59369  68502.000000  0     945869.894    666110.704  -6797532.854
10 0 59369  68622.000000  0    1809895.282    397312.369  -6641594.587
10 0 59369  68742.000000  0    2637679.685    106829.425  -6369801.091
10 0 59369  68862.000000  0    3414531.282   -199545.355  -5986833.129
10 0 59369  68982.000000  0    4126720.175   -515488.740  -5499296.475
10 0 59369  69102.000000  0    4761720.408   -834271.988  -4915619.136
10 0 59369  69222.000000  0    5308435.712  -1148898.646  -4245918.000
10 0 59369  69342.000000  0    5757401.565  -1452252.107  -3501833.521
10 0 59369  69462.000000  0    6100959.515  -1737250.227  -2696335.629
10 0 59369  69582.000000  0    6333399.740  -1997004.039  -1843502.722
10 0 59369  69702.000000  0    6451067.463  -2224976.606   -958276.771
99
